"Partner Name",Email,"Primary Contact",Phone,Street,City,State,"Post Code",Country,"Currency Code","Partner Category",Workflow,Products,Enrolled,"In Progress"
"Australian Centre of English",info@ace.nsw.edu.au,,"61(0)2 8959 2717","2nd Floor, Hyde Park Plaza Building, 38 College Street, Darlinghurst",Sydney,"New South Wales",2000,Australia,AUD,Institution,"Australian Education",2,0,0
"Sydney College",admin@sydneycollege.nsw.edu.au,,61289592717,"38 College St",Darlinghurst,"New South Wales",2010,Australia,AUD,"Training Center","Australian Education",11,0,0
"Australian International College (AIC)",admin@aic.nsw.edu.au,,"+61(0)2 8057 0837","38 College Street",Sydney,"New South Wales",2010,Australia,AUD,College,"Australian Education",3,0,0
"Fusion College of Technology",admin@fusioncollege.edu.au,,+61278068110,"Level 5, 16-18 Wentworth Street,",Parramatta,NSW,2150,Australia,AUD,College,"Australian Education",11,0,0
"Ransford College",info@ransford.edu.au,,61296892173,"Suite 1-6 79, Paisley Street",Melbourne,Victoria,3011,Australia,AUD,College,"Australian Education",6,0,0
"Australian Institute of Technology and Commerce",info@aitc.nsw.edu.au,,"02 9211 4958","Level 6, 8 Quay Street, Haymarket",Sydney,"New South Wales",2000,Australia,AUD,Institution,"Australian Education",3,0,0
"Southern Academy of Higher Education",info@sahe.nsw.edu.au,,"(61) 2 9071 0177","Level 1, 191 Thomas St","Haymarket (Sydney)","New South Wales",2000,Australia,AUD,Institution,"Australian Education",3,2,0
"Australian Language Centre",info@alcc.edu.au,,"61 2 9264 5228","Level 1, 269 Church Street",Parramatta,"New South Wales",2150,Australia,AUD,Institution,"Australian Education",3,2,2
"Central Australian College (CAC)",admin@cac.edu.au,,"(03) 9687 4275","8-10 Cross street","West Footscray",Victoria,3012,Australia,AUD,Institution,"Australian Education",26,0,0
"Australian School of Accounting",info@asahe.edu.au,,"+612 9182 9030","Level 9/140 Elizabeth Street",Sydney,"New South Wales",2000,Australia,AUD,"High School","Australian Education",4,0,0
"Churchill Institute",info@churchill.nsw.edu.au,,"(02) 8856 2997","Level 1, 16-18 Wentworth Street",Parramatta,"New South Wales",2150,Australia,AUD,Institution,"Australian Education",4,2,2
"Skyline Higher Education Australia (SHEA)",admin@shea.edu.au,,"61 2 9096 3750","Level 3, 136 Chalmers Street","Surry Hills","New South Wales",2010,Australia,AUD,Institution,"Australian Education",1,0,0
"Yarra College Australia",info@yarracollege.vic.edu.au,,"+61 466 106256","Level 6, 190 Queen Street",Melbourne,Victoria,3000,Australia,AUD,College,"Australian Education",14,0,0
"Hillshire International College",info@hillshire.edu.au,,"02 7801 3845","Level 2, 16-18 Wentworth Street",Sydney,"New South Wales",2150,Australia,AUD,College,"Australian Education",9,1,1
"Daffodil International College",info@daffodil.edu.au,,+1300665737,"Unit 4 5-11 Noel St","SLACKS CREEK",Queensland,4127,Australia,AUD,College,"Australian Education",3,0,0
"Sydney Polytechnic Institute",info@spi.nsw.edu.au,,"61 2 90576409","Level 4,191 Thomas Street",Sydney,"New South Wales",2000,Australia,AUD,Institution,"Australian Education",4,2,2
"Australian City International College",info@acicollege.edu.au,,"+61 02 780 92811","Suite 1, Level 2, 17-21 Macquarie Street",Sydney,"New South Wales",2150,Australia,AUD,College,"Australian Education",16,0,0
"Australasia Technology Institute",info@atinstitue.edu.au,,"+02 9163 8977","Level 4/191 Thomas Street",Haymarket,"New South Wales",2000,Australia,AUD,Institution,"Australian Education",14,0,0
"Training Masters (TM)",admissions@tm.nsw.edu.au,,"(02) 8278 7722","Level 5 338 Pitt Street",Sydney,"New South Wales",2000,Australia,AUD,Institution,"Australian Education",9,0,0
"Lincoln Institute of Higher Education",admissions@lincolnau.nsw.edu.au,,"+612 9072 9950","Level 2, 191 Thomas Street",Sydney,"New South Wales",2000,Australia,AUD,Institution,"Australian Education",2,0,0
"Canterbury Business College",info@cbc.nsw.edu.au,,"(02) 9280 3733","Level 6,29 - 35 Bellevue Street","Surry Hills","New South Wales",2010,Australia,AUD,Institution,"Australian Education",12,6,3
"Mulberry Institute",info@mulberry.nsw.edu.au,,"+61 (0) 2 95870195","Level 1, Unit 5, 9 Montgomery Street",Kogarah,"New South Wales",2217,Australia,AUD,Institution,"Australian Education",2,0,0
"International Institute of Technology and Management Australia (IITMA)",admin@iitma.vic.edu.au,,,"Suite 2B, Ground Floor,58 Victor Crescent","Narre warren",Victoria,3805,Australia,AUD,Institution,"Australian Education",1,0,0
"Queensland University of Technology (QUT)",askqut@qut.edu.au,,"(03) 9627 4853","2 George Street",Brisbane,Queensland,4000,Australia,AUD,University,"Australian Education",183,3,0
"APEX Australia Higher Education",info.he@apexaustralia.edu.au,,"02 8007 6262","2 Sorrell Street",Parramatta,"New South Wales",2150,Australia,AUD,Institution,"Australian Education",3,0,0
"TAFE South Australia",margie.fixter@tafesa.edu.au,,610882078200,"120 Currie Street",Adelaide,"South Australia",5000,Australia,AUD,Institution,"Australian Education",85,0,0
"Opulence College",enquiry.act@opc.edu.au,,+61261018650,"Mezzanine Level, 15 Moore St",CANBERRA,"Australian Capital Territory",2601,Australia,AUD,College,"Australian Education",9,0,0
"Cass Training International College - CTIC",info@casstraining.com.au,,"61 2 9279 2400","48 Lime St",Sydney,"New South Wales",00956C,Australia,AUD,College,"Australian Education",18,2,0
"USQ - Sydney Education Centre",info@usqsydney.nsw.edu.au,,61292803733,"Level 1, 29-35 Bellevue Street","Surry Hills","New South Wales",2010,Australia,AUD,"Training Center","Australian Education",9,1,0
"Institute of Health and Management",enquiry@ihm.edu.au,,61394554400,"Ground Floor, 1 Wentworth Street",Parramatta,"New South Wales",2150,Australia,AUD,"Training Center","Australian Education",7,2,1
"Envirotech Education",info@envirotech.edu.au,,61755353766,"10, Bains Rd","Currumbin Valley",Queensland,4223,Australia,AUD,Institution,"Australian Education",15,0,0
"Australian Skills Management Institute",admin@asmitraining.edu.au,,1300400269,"Level 5, 269 Wickham Street","Fortitude Valley",Queensland,4006,Australia,AUD,"Training Center","Australian Education",15,0,0
"The University of New South Wales (UNSW)",president@unsw.edu.au,,610293851000,"UNSW Sydney High St",Kensington,"New South Wales",2052,Australia,AUD,University,"Australian Education",596,2,0
"Nova Institute of Technology",info@novainstitute.net.au,,611300362883,"Level 4, 220 Albert Road","South Melbourne",Victoria,3205,Australia,AUD,Institution,"Australian Education",15,10,6
"The University of Notre Dame Australia",international@nd.edu.au,,61894330555,"23 High Street",Fremantle,"Western Australia",6160,Australia,AUD,University,"Australian Education",139,7,6
"University of Technology Sydney (UTS)",leo-mian.liu@uts.edu.au,,"(02) 9514 8072","1 Broadway",Haymarket,"New South Wales",2007,Australia,AUD,University,"Australian Education",626,3,1
"Victoria University (VU)",gotovu@vu.edu.au,,"(03) 9919 4468","Footscray Park Campus, Ballarat Road (between Hoadley Court and Mills Close)",Footscray,Victoria,3011,Australia,AUD,University,"Australian Education",162,10,4
"Hospitality Training Academy",admin@hta.com.au,,"+61 75556 4776","Level 1, 9 Bay Street",Southport,Queensland,4125,Australia,AUD,Institution,"Australian Education",9,0,0
"Melbourne Polytechnic",international@melbournepolytechnic.edu.au,,"(03) 9269 1666","77 - 91 St Georges Rd",Preston,Victoria,3072,Australia,AUD,Institution,"Australian Education",112,3,0
"Griffith University",D.Henly@griffith.edu.au,,"(07) 3735 6425","170 Kessels Road",Nathan,Queensland,4111,Australia,AUD,University,"Australian Education",310,4,2
"The University of Queensland (UQ)",admissions@uq.edu.au,,610733657941,"St Lucia",Brisbane,Queensland,4072,Australia,AUD,University,"Australian Education",1145,2,2
"Australian Health and Horticulture Institute",admin@ahhi.edu.au,,"(02) 8001 6198","31/70-74 Phillip Street",Parramatta,"New South Wales",2150,Australia,AUD,Institution,"Australian Education",11,0,0
"AUSWIDE College",info@auswidecollege.edu.au,,"1800 956 754","Lvel-1 575 Pacific Hwy","St Leonards","New South Wales",2065,Australia,AUD,College,"Australian Education",2,0,0
"Collins Institute of Australia",info@collins.edu.au,,610280248999,"Level 6,127 Liverpool Street",Sydney,"New South Wales",2000,Australia,AUD,Institution,"Australian Education",3,0,0
"Visa Alliance PTE Class",shova.rai@visaalliance.com,,,,,,,,AUD,"Internal Instructor",Classroom,1,65,56
"Oceania College of Technology (OCT)",info@oct.edu.au,"Tanveer Parmar",610731064200,"110 Beatty Road",Archerfield,Queensland,4108,Australia,AUD,Institution,"Australian Education",12,0,0
"Engineering Institute of Technology (EIT)",eit@eit.edu.au,,"(08) 9321 1702","1031 Wellington Street","West Perth","Western Australia",6872,Australia,AUD,Institution,"Australian Education",8,5,1
"Victory Institute",info@victory.nsw.edu.au,,61292998889,"Level 8, 22 Market Street",Sydney,"New South Wales",2000,Australia,AUD,"Training Center","Australian Education",12,2,2
"Pivotal Education",training@pivotal.edu.au,,61296879299,"84-86 Mary Street","Surry Hills","New South Wales",2010,Australia,AUD,Institution,"Australian Education",6,0,0
Holmesglen,info@holmesglen.edu.au,,"(03) 9564 1557","Corner Batesford & Warrigal Roads",Chadstone,Victoria,3148,Australia,AUD,Institution,"Australian Education",106,1,0
"Australian Health and Management Institute (AHMI)",marketing@ahmi.edu.au,,"(02) 9687 3323","Level 2, 43 Marion Street",Parramatta,"New South Wales",2150,Australia,AUD,Institution,"Australian Education",19,0,0
"Australian Institute of Business and Technical Education (AIBTE)",admissions@aibte.edu.au,,"+61 499 444 442","Level 3, 47 Waymouth St",Adelaide,"South Australia",5000,Australia,AUD,Institution,"Australian Education",4,0,0
"Sydney Metro College",admissions@sydneymetrocollege.edu.au,,61289370991,"Level 2, 16-22 Wentworth Avenue",Sydney,"New South Wales",2134,Australia,AUD,College,"Australian Education",16,14,11
"Signet Institute of Australia",info@signet.edu.au,,"1300 2233 12","Level 5 & 9, 341-345 Queen Street",Melbourne,Victoria,3000,Australia,AUD,Institution,"Australian Education",21,1,0
"Harbourside Institute of Australia",info@harbourside.nsw.edu.au,,6129216898,"Level 3 616-620 Harris St",Ultimo,"New South Wales",2007,Australia,AUD,Institution,"Australian Education",10,3,0
"Central Melbourne Institute (CMI)",Info@cmi.vic.edu.au,,610386377700,"Level 6, 460 Bourke Street",Melbourne,Victoria,3001,Australia,AUD,Institution,"Australian Education",11,0,0
"KCA Education",admissions@kca.edu.au,,"1300 854 011","269 Sussex Street",Sydney,"New South Wales",2000,Australia,AUD,Institution,"Australian Education",9,0,0
"Silverline College",info@slc.edu.au,,"61 1300 622 165","280 Pitt St",Sydney,"New South Wales",2000,Australia,AUD,College,"Australian Education",16,0,0
"Analytics Institute of Australia",info@analyticsinstitute.edu.au,,"(+61) 405 762 772","Part Level 10, 601 Bourke Street",Melbourne,Victoria,3000,Australia,AUD,Institution,"Australian Education",2,2,1
"The Institute of Creative Arts and Technology (ICAT), Macleay College",study@macleay.edu.au,,"(02) 8373 5100","Level 7, 250 Collins Street",Melbourne,Victoria,3000,Australia,AUD,College,"Australian Education",5,0,0
"Southern Cross University (SCU)",vpglobal@scu.edu.au,,"(02) 6620 3850","Military Road",Lismore,"New South Wales",2480,Australia,AUD,University,"Australian Education",141,61,34
"Vigil International College",info@vigilinternationalcollege.edu.au,,"1800 978 377","Level 2, 12-14 Wentworth St",Parramatta,"New South Wales",2150,Australia,AUD,College,"Australian Education",8,0,0
"VIT (Victorian Institute of Technology)",enrol@vit.edu.au,,"(03) 9670 7848","Level 14,123 Queen Street",Melbourne,Victoria,3000,Australia,AUD,Institution,"Australian Education",18,16,7
"Australian National Institute of Education(ANIE)",info@anie.edu.au,,61296205501,"Suite 11, 197 Prospect Hwy","Seven Hills","New South Wales",2147,Australia,AUD,Institution,"Australian Education",7,0,0
"CAREERS GLOBAL EDUCATION",info@careersglobal.com.au,Alexa,1300117783,"Level 8, 805/220 Collins St,",Melbourne,Victoria,3000,Australia,AUD,"Service Provider","Australian Education",3,0,0
"Oban College",info@oban.edu.au,,"+61 8 7081 7081","level 3, 135, Pirie Street",Adelaide,"South Australia",5000,Australia,AUD,College,"Australian Education",5,7,5
"Australian Sovereign College",info@ausc.edu.au,,61362009550,"212A Liverpool Street",Hobart,Tasmania,7000,Australia,AUD,College,"Australian Education",20,0,0
"INUS Australia",info@inusaustralia.com.au,,"+61 3 9642 4016","Ground Floor, 48 Flemington Rd Parkville",Melbourne,Victoria,3052,Australia,AUD,Institution,"Australian Education",4,0,0
"BRITTS COLLEGE",info@brittscollege.com.au,,"61 2 9264 2223","Ground Floor, 372 Spencer Street",Melbourne,Victoria,3003,Australia,AUD,College,"Australian Education",8,12,7
"Australian Institute of Business Intelligence (AIBI) Higher Education",info@aibi.edu.au,,61299697054,"Suite 510, 451 Pitt St",Sydney,"New South Wales",2000,Australia,AUD,College,"Australian Education",3,0,0
"Institute Of Science Management And Technology (ISMT)",info@ismt.edu.au,,"(02) 8542 1219","Level 1, 575-597 Pacific Highway",Sydney,"New South Wales",2065,Australia,AUD,Institution,"Australian Education",21,2,2
"ETON College",info@eton.edu.au,,"+61 2 8098 2999","Level 6, 191 Thomas Street",Haymarket,"New South Wales",2000,Australia,AUD,College,"Australian Education",2,0,0
"VIA Education",info@via.edu.au,,"(02) 9261 5616","Level 5, 565 George Street",Sydney,"New South Wales",2000,Australia,AUD,Institution,"Australian Education",8,0,0
"Nomi College",info@nomicollege.com.au,,+61272558206,"Unit 505 410 Elizabeth St","Surry Hills","New South Wales",2010,Australia,AUD,College,"Australian Education",11,0,0
"Kingsford Academy Australia (KAA)",info@kaa.edu.au,,"02 8318 7776","Level 2, 545 Kent Street",Sydney,"New South Wales",2000,Australia,AUD,Institution,"Australian Education",5,0,0
"International College of Hotel Management (ICHM)",admissions@ichm.edu.au,,"(+61 8) 8228 3664","131-139 Currie St",Adelaide,"South Australia",5000,Australia,AUD,"Training Center","Australian Education",9,0,0
"Australian National Institute of Management and Commerce(IMC)",info@imc.edu.au,,61292094888,"Suite 1 Biomedical Building, 1 Central Avenue",Eveleigh,"New South Wales",2015,Australia,AUD,Institution,"Australian Education",45,2,1
"Australian College of Professional Careers(ACPC)",info@acpc.edu.au,,"02 9054 9080","Shop1, 15-17 Blaxland Road",Rhodes,"New South Wales",2138,Australia,AUD,College,"Australian Education",9,0,0
"Skills Australia Institute",info@skillsaustralia.edu.au,,610861481300,"10 Victoria Avenue",Perth,"Western Australia",6000,Australia,AUD,Institution,"Australian Education,SKILL ASSESSMENT",14,0,0
"University of Canberra - ECA",UCSydneyHills@canberra.edu.au,"Rose Passarelli","(02) 9052 8900","72-74 Cecil Av",Sydney,,,Australia,AUD,University,"Australian Education",21,10,4
"Monash University",study@monash.edu,,610399054000,"Wellington Road",Clayton,Victoria,3800,Australia,AUD,University,"Australian Education",354,0,0
"Curtin University",study@curtin.edu.au,,610892665888,"Kent Street",Bentley,"Western Australia",6102,Australia,AUD,University,"Australian Education",270,0,0
"La Trobe University",W.Martinec@latrobe.edu.au,,"(03) 0013 5045","Plenty Road and Kingsbury Drive",Bundoora,Victoria,3086,Australia,AUD,University,"Australian Education",184,8,1
"University of the Sunshine Coast (USC)",information@usc.edu.au,,"(07) 5430 1101","90 Sippy Downs Drive","Sippy Downs",Queensland,4556,Australia,AUD,University,"Australian Education",114,3,1
"ATMC - Federation University Australia",academic.secretariat@federation.edu.au,"Sanjay Bastia","+61 4 8880 5001","601 Bourke Street",Melbourne,Victoria,3000,Australia,AUD,College,"Australian Education",24,12,0
"Australian Professional Skills Institute (APSI)",info@apsi.edu.au,,"(08) 6365 4386","Unit 12, Wellington Fair 40 Lord Street","East Perth","Western Australia",6004,Australia,AUD,Institution,"Australian Education",14,1,0
"Thames International College (Australia)",tinternationalcollege@gmail.com,,0412371977,"118 Walker St","North Sydney","New South Wales",2060,Australia,AUD,College,"Australian Education",7,34,8
"University of Southern Queensland (USQ)",international@usq.edu.au,,"(07) 4631 2285","487-535 West Street",Toowoomba,Queensland,4350,Australia,AUD,University,"Australian Education",322,8,1
"Polytechnic Institute Australia (PIA)",info@pia.edu.au,,"(02) 8319 8202","Level 16, 233 Castlereagh Street",Sydney,"New South Wales",2000,Australia,AUD,Institution,"Australian Education",16,4,3
"Deakin University",study@deakin.edu.au,,"+61 3 9918 9188","221 Burwood Highway",Burwood,Victoria,3125,Australia,AUD,University,"Australian Education",271,2,1
"Federation University Australia",info@federation.edu.au,,"(03) 5327 6712","University Drive",Ballarat,Victoria,3353,Australia,AUD,University,"Australian Education",103,12,5
"University of Tasmania (UTas)",International.Admissions@utas.edu.au,,"(03) 6226 8580","Hytten Hall, University of Tasmania, French Street","Sandy Bay",Tasmania,7005,Australia,AUD,University,"Australian Education",197,6,2
"Stellar College",info@mydomain.com,,6118005678899,"L2/148 Brunswick Street",Brisbane,Queensland,4006,Australia,AUD,College,"Australian Education",9,0,0
"Melbourne Institute of Technology (MIT)",enquiries@mit.edu.au,,"(03) 8600 6700","288 La Trobe Street",Melbourne,Victoria,3000,Australia,AUD,Institution,"Australian Education",19,1,0
"Sydney International School of Technology and Commerce",info@sistc.nsw.edu.au,,"1300 870 290","Level 14, 233 Castlereagh Street",Sydney,"New South Wales",2000,Australia,AUD,College,"Australian Education",8,1,0
"Universal Institute of Technology",info@uit.edu.au,,61396000087,"Level 1, 131 Queen Street ",Melbourne,Victoria,3000,Australia,AUD,"Training Center","Australian Education",11,2,0
"Universal English",info@universalenglish.edu.au,,61396000087,"Level 1 / 131 Queen Street",Melbourne,Victoria,3000,Australia,AUD,"Training Center","Australian Education",5,1,0
"Charles Darwin University (CDU)",study@cdu.edu.au,,"(08) 8946 7215","Level 10, 815 George Street",Sydney,"New South Wales",2000,Australia,AUD,University,"Australian Education",134,10,3
Nortwest,INFO@NORTWEST.EDU.AU,,61451915609,"Level 2, 531 George Street",Sydney,"New South Wales",2000,Australia,AUD,"Training Center","Australian Education",30,41,31
"Stanley College",info@stanleycollege.edu.au,,"(08) 6371 9999","171 James Street",Northbridge,"Western Australia",6003,Australia,AUD,Institution,"Australian Education",43,5,3
"Future College T/A Australian Academy of Hospitality and Management",ADMIN@FUTURECOLLEGE.COM.AU,,"1300 025 308","SUITE 85, LEVEL 8, 8-24 KIPPAX STREET","SURRY HILLS","New South Wales",2010,Australia,AUD,College,"Australian Education",10,1,0
"Australian Trade Training College",skills@aqato.com.au,,,,,,,,AUD,Private,"SKILL ASSESSMENT",1,33,19
"Nortwest College",enrolments@northwest.edu.au,"Nirmal Shah",,,,,,,AUD,College,"Australian Education",4,0,0
"St George and Sutherland Community College (SGSCC International)",slicciardello@sgscc.edu.au,,+61295283344,"127-129 Sutherland Road",Sydney,"New South Wales",2226,Australia,AUD,College,"Australian Education",17,0,0
"The University of Melbourne (UniMelb)",student-visa@unimelb.edu.au,,610383444022,"Grattan Street",Parkville,Victoria,3010,Australia,AUD,University,"Australian Education",397,0,0
"Le Pont International College",info@lepont.com.au,,"02 9172 5544","Level 3 25 George Street",Parramatta,"New South Wales",2150,Australia,AUD,College,"Australian Education",3,6,4
"University of Southern Queensland",study@usq.edu.au,,,"Springfield, Brisbane",,QLD,,,AUD,University,"Australian Education",2,0,0
"The William Light Institute",admin@accend.edu.au,,61396000087,"Level 1/131 Queen St",Melbourne,Victoria,3000,Australia,AUD,Institution,"Australian Education",3,22,10
"Murdoch University",international@murdoch.edu.au,,610893606063,"90 South Street",Murdoch,"Western Australia",6150,Australia,AUD,University,"Australian Education",234,2,1
"Universal Learning Group (WLI)",info@ulgroup.com.au,,61396000087,"1/131 Queen St",Melbourne,Victoria,3000,Australia,AUD,Institution,"Australian Education",2,0,0
"Universal Learning Group (UHE)",admissions@uhe.com.au,,61396000087,"1/131 Queen St",Melbourne,Victoria,3000,Australia,AUD,Institution,"Australian Education",2,0,0
"Gamma Education & Training",enquire@gamma.edu.au,,61730757099,"Level 2, 266 Brunswick Street","Fortitude Valley",Queensland,4006,Australia,AUD,Institution,"Australian Education",23,0,0
"RMIT University (Royal Melbourne Institute of Technology University)",isu@rmit.edu.au,,"(03) 8676 7047","124 La Trobe Street",Melbourne,Victoria,3001,Australia,AUD,University,"Australian Education",409,1,0
"ECA College of Health Sciences",info@chs.edu.au,,"1300 219 159","Level 4, 1-3 Fitzwilliam Street",Parramatta,"New South Wales",2150,Australia,AUD,College,"Australian Education",3,4,1
"Novus Education",admin@novuseducation.edu.au,"Ashish Maharjan",0425072090,"Level 3, Suite 3.09-3.11 22/36 Mountain St",ULTIMO,"New South Wales",2007,Australia,AUD,Institution,"Australian Education",15,4,4
"Choice Academic College",info@cacademic.edu.au,,"(02) 8437 7944","Level 1, 7 Hassall Street",Parramatta,"New South Wales",2150,Australia,AUD,Institution,"Australian Education",13,1,0
"Education Centre of Australia",apply@chs.edu.au,," 2 8265 3200",,Sydney,"New South Wales",,Australia,AUD,Institution,"Australian Education",2,2,0
"Universal Business School Sydney (UBSS)",info@gca.edu.au,"Dhiraj Singh","1300 422 422","Levels 10 & 11, 233 Castlereagh Street",Sydney,"New South Wales",1235,Australia,AUD,Institution,"Australian Education",13,6,3
"Southern Cross Education Institute (SCEI)",info@scei.edu.au,,"(03) 9602 4110","155-161 Boundary Road","North Melbourne",Victoria,3051,Australia,AUD,Institution,"Australian Education",21,8,4
"Navitas Professional",sydney@navitas-internships.com,,61300728966,"Level 15, 255 Elizabeth Street",Sydney,"New South Wales",2000,Australia,AUD,Institution,"Australian Education",6,1,1
"The Hotel School",hotelschool@scu.edu.au,,1800316530,"60 Phillip Street",Sydney,"New South Wales",2000,Australia,AUD,School,"Australian Education",6,6,1
"ABM Further Education",info@abm.edu.au,,610291604507,"Mezzanine 56-58 York Street",Sydney,"New South Wales",2000,Australia,AUD,Institution,"Australian Education",7,8,5
"Deakin University",deakinUni12@gmail.com,,,"221 Burwood Hwy","Burwood ",VIC,3125,Australia,AUD,University,"Australian Education",3,1,0
"Crown Institute of Higher Education (CIHE)",info@cihe.edu.au,"Saksham Onta","(02) 9955 0488","116 Pacific Highway","North Sydney","New South Wales",2060,Australia,AUD,Institution,"Australian Education",12,6,3
"Whitsundays College",admissions@wce.edu.au,,280670844,"Level 4, 579 Harris Street",Ultimo,NSW,2007,Australia,AUD,College,"Australian Education",1,0,0
"The University of Newcastle (UoN)",learningsupport@newcastle.edu.au,,"(02) 4921 6236","University Drive",Callaghan,"New South Wales",2308,Australia,AUD,University,"Australian Education",690,10,2
"Western Sydney University International College",mypathway@westernsydney.edu.au,"Tiara Duong",61296859860,"Level 6, 6 Hassall St",Parramatta,"New South Wales",2150,Australia,AUD,"Training Center","Australian Education",13,2,0
"James Cook University",jamesabc@gmail.com,,,"1 James Cook Dr"," Douglas ","QLD ",4811,Australia,AUD,University,"Australian Education",4,3,0
"Academies Australasia",Studentservices@academies.edu.au,,61292245500,"Level 6, 505 George Street",Sydney,"New South Wales",2000,Australia,AUD,Institution,"Australian Education",49,2,2
"Whitsundays College of English",admission@wce.edu.au,"Tom Jung",610406290255,"Level 4, 579 Harris Street",Ultimo,"New South Wales",2007,Australia,AUD,Institution,"Australian Education",4,16,3
"Griffith University",abc123@gmail.com,,,"South East ",,Queensland,,Australia,AUD,University,"Australian Education",3,0,0
TasTAFE,info@tastafe.tas.edu.au,,"1300 655 307","75 Campbell Street",Hobart,Tasmania,7000,Australia,AUD,Institution,"Australian Education",40,0,0
"Victoria University (ECA)",studentservices@vusydney.edu.au,,"61 2 8265 3216","Level 1, 160-166 Sussex Street",Sydney,"New South Wales",2000,Australia,AUD,University,"Australian Education",199,44,8
"Western Sydney College",ceo@westernsydneycollege.com.au,,61286287973,"55 High Street",Parramatta,"New South Wales",2150,Australia,AUD,College,"Australian Education",26,0,0
"The University of Adelaide ",dave.lamb@adelaide.edu.au,,610883137335,"North Terrace","Adelaide ","South Australia",5005,Australia,AUD,University,"Australian Education",885,0,0
"Edith Cowan University (ECU)",s.ridings@ecu.edu.au,,61-8-6304-0000,"270 Joondalup Drive",Perth,"Western Australia",6027,Australia,AUD,University,"Australian Education",207,1,1
"Technical Institute of Victoria",info@techinstitute.vic.edu.au,,61396393525,"Level 1, 252 Lygon Street",Carlton,Victoria,3053,Australia,AUD,"Training Center","Australian Education",5,0,0
AAT,mrdivision@aat.gov.au,,292765000,"Level 6, 83 Clarence Street",Sydney,NSW,2000,Australia,AUD,Tribunal,AAT,1,11,8
"The University of Western Australia (UWA)",international@uwa.edu.au,,"+61 8 9842 0888","35 Stirling Highway",Perth,"Western Australia",6009,Australia,AUD,University,"Australian Education",342,0,0
"Kaplan Business School (KBS)",info@kbs.edu.au,,"+61 (0)3 9626 4576","Level 4, 370 Docklands Drive",Melbourne,Victoria,3008,Australia,AUD,Institution,"Australian Education",37,14,7
"Superior Training Centre",info@stc.nsw.edu.au,,61296186809,"Unit 1 / 13 York Road ",Ingleburn,"New South Wales",2565,Australia,AUD,"Training Center","Australian Education",7,1,1
"Skyline International College (SIC)",info@sic.edu.au,,"1300 807 383","Suite 701, Lvl 7 and Suite 508, Lvl 5, 11-15 Deane Street",Burwood,"New South Wales",2134,Australia,AUD,Institution,"Australian Education",14,6,4
"Think Education Group",corporate@laureate.edu.au,,1300738243,"235 Pyrmont Street ",Perth,"New South Wales",2009,Australia,AUD,"Training Center","Australian Education",14,1,0
"Institute of Health and Nursing Australia",enquiry@ihna.edu.au,"Rexsen Roy Mathew",61394505100,"597-599 Upper Heidelberg Road","Heidelberg Heights",Victoria,3081,Australia,AUD,"Training Center","Australian Education",14,1,1
"Australian College of Applied Business",info@acab.edu.au,,"0430 458 955","Level 1, 239 Church St.",Parramatta,"New South Wales",2150,Australia,AUD,Institution,"Australian Education",7,0,0
"Canberra College of Management & Technology",info@ccmtcollege.edu.au,,"+61 2 9188 1733","Level 2, 15 Barry Drive",Turner,"Australian Capital Territory",2612,Australia,AUD,College,"Australian Education",13,1,0
"Hibernia Institute Sydney",principal@hibernia.edu.au,,"(02) 8214 2513","Level 1 16-22 Wentworth Avenue","Surrey Hills","New South Wales",2010,Australia,AUD,Institution,"Australian Education",6,1,1
"Southern Cross Education Institute - Higher Education (SCEI-HE)",enroll@scei-he.edu.au,,"(03) 9602 4110","155-161 Boundary Road","North Melbourne",Victoria,3051,Australia,AUD,Institution,"Australian Education",6,3,1
"Reach Community College",info@reachcollege.edu.au,,61361695508,"Level 2,132-146 Elizabeth St",Hobart,Tasmania,7000,Australia,AUD,College,"Australian Education",53,6,3
"Holmes Institute",melbourne@holmes.edu.au,,"(03) 9662 2055","185 Spring Street",Melbourne,Victoria,3000,Australia,AUD,Institution,"Australian Education",30,41,26
"Canberra Institute of Technology (CIT)",international@cit.edu.au,,"(02) 6207 3107","37 Constitution Avenue",Reid,"Australian Capital Territory",2612,Australia,AUD,Institution,"Australian Education",88,1,1
"Pax Institute of Education",info@pax.edu.au,,"0432 053 115","Level 16, 190 Queen Street",Melbourne,Victoria,3000,Australia,AUD,Institution,"Australian Education",5,2,0
"Australian College for Applied Professions",StudentCentral@acap.edu.au,," 1800 061 199","11/255 Elizabeth St","Sydney ",NSW," 2000",Australia,AUD,College,"Australian Education",2,3,2
"Elpida Education",info@elpidaedu.com,,,"ABN 52 644 504 487 Museum Towers Suite 603, 267-277 Castlereagh Street SYDNEY NSW 2000",,,,,AUD,"Training Center","RPL Assessment ",11,49,17
"Central Queensland University (CQU)",online@cqu.edu.au,"Carolina Lourenco","(07) 4930 9754","160 Ann Street",Brisbane,Queensland,4000,Australia,AUD,University,"Australian Education",112,43,13
"EOI AND ROI",naina@visaalliance.com.au,,405407081,,,,,,AUD,"Visa Office",EOI/ROI,9,219,140
"Strathfield College",info@strathfieldcollege.edu.au,,"61 2 9212 7799","Level 2 & 4, 86 Mary Street","Surry Hills","New South Wales",2010,Australia,AUD,Institution,"Australian Education",17,2,0
"ECA Professional Year",py@eca.edu.au,,61283192171,"Level 4, 1-3 Fitzwilliam S",Parramatt,"New South Wales",2000,Australia,AUD,Institution,"Australian Education",4,1,0
"Victorian Institute of Education",info@vie.edu.au,,610280317727,"95 Bathurst Street",Sydney,"New South Wales",2000,Australia,AUD,Institution,"Australian Education",22,0,0
"Macquarie University (MQ)",mqinfo@mq.edu.au,,"(02) 9850 7346","Balaclava Roads","Macquarie Park","New South Wales",2109,Australia,AUD,University,"Australian Education",224,0,0
"Swinburne University of Technology",asmith@swin.edu.au,"Lina Wang","(03) 9214 5351","John St",Hawthorn,Victoria,3122,Australia,AUD,University,"Australian Education",311,7,2
"UOW College",futurestudents@uow.edu.au,,61242213218,"Building 30, Northfields Avenue",Keiraville,"New South Wales",2522,Australia,AUD,"Training Center","Australian Education",19,2,1
"Wells International College",info@wic.edu.au,,61292834388,"LG, 101 Sussex Street",Sydney,"New South Wales",2000,Australia,AUD,College,"Australian Education",14,0,0
"Choice Business College (CBC)",info@cbc.edu.au,,"(02) 9630 6999","G104/G105 Australia Fair",Southport,Queensland,4215,Australia,AUD,Institution,"Australian Education",11,3,0
"WIN College",info-george@win.edu.au,,61282529979,"Level 7, 451 Pitt Street",Haymarket,"New South Wales",2000,Australia,AUD,College,"Australian Education",22,2,0
"AIM Institute of Health and Sciences",Enquiries@aiminstitute.edu.au,,61262305153,"Level 1, 48 Mort Street",Braddon,"Australian Capital Territory",2612,Australia,AUD,"Training Center","Australian Education",11,0,0
"Macallan College",perth@macallan.edu.au,,"(07) 3124 6163","Level 3, 440 Williams Street",Perth,"Western Australia",6000,Australia,AUD,Institution,"Australian Education",15,66,38
"Canterbury Institute of management (CIM)",info@ciom.edu.au,"Nisha (Marketing Manager )","(02) 8007 5846","41 McLaren St","North Sydney","New South Wales",2060,Australia,AUD,Institution,"Australian Education",8,26,9
"Campbell Institute",info@campbellinstitute.edu.au,"Harpreet SINGH",+61481121578,"Lower Ground 121 Queen St",CAMPBELLTOWN,"New South Wales",2560,Australia,AUD,College,"Australian Education",10,21,11
"Unity College Australia",info@unity.edu.au,,61261610050,"Level 1 Belconnen Churches Centre 
54 Benjamin Way",Belconnen,"Australian Capital Territory",2616,Australia,AUD,Institution,"Australian Education",6,0,0
"Wentworth Institute of Higher Education",info@win.edu.au,"Nancy XU","(02) 8252 9999","302-306 Elizabeth St","Surry Hills","New South Wales",2010,Australia,AUD,Institution,"Australian Education",18,26,9
"IKON Institute of Australia",info@ikoninstitute.com.au,"Tammy Vo",1300000933,"Level 3,127 Rundle Mall",Adelaide,"South Australia",5000,Australia,AUD,Institution,"Australian Education",7,87,41
"Western Sydney University (WSU)",study@westernsydney.edu.au,"Simon Wang (WSU Sydney Campus only)","(02) 9852 5222","Second Avenue",Kingswood,"New South Wales",2747,Australia,AUD,University,"Australian Education",762,42,15
"University of Wollongong (UOW)",future-students@uow.edu.au,,"(02) 4221 5422","Northfields Avenue",Wollongong,"New South Wales",2522,Australia,AUD,University,"Australian Education",143,8,2
"Stott's College",enquiries@ae.edu.au,,"(03) 9663 3399","168 Exhibition Street",Melboune,Victoria,3053,Australia,AUD,Institution,"Australian Education",25,37,23
"Performance Education",info@performance.edu.au,,61296195350,"Level 6, 11 – 31 York Street",Sydney,"New South Wales",2000,Australia,AUD,Institution,"Australian Education",3,12,9
"Sydney City College of Management (SCCM)",info@sccm.edu.au,,"61 2 8872 0435","Level 2, 17 Macquarie St",Parramatta,"New South Wales",2150,Australia,AUD,Institution,"Australian Education",28,3,1
"Australian Education Counsel",Accounts@australianeducationcounsel.com.au,,"483 816 019",,,,,,AUD,"Training Center","RPL Assessment ",5,8,1
"Kingsford International Institute (KII)",info@kii.edu.au,,"(02) 8599 9800","Level 6, 128-136 Chalmers Street","Surry Hills","New South Wales",2010,Australia,AUD,Institution,"Australian Education",16,6,2
"Austrasia College ",admissions@austrasia.edu.au,"Jason Shen",61280660278," Level 5, 410-412 Elizabeth Street","Surry Hills","New South Wales",2010,Australia,AUD,College,"Australian Education",8,5,1
"Key 2 Learning College",office@key2learning.edu.au,"  Aloma Bao",61261300100,"Block A, Canberra Technology Park, 49 Phillip Avenue ",Watson,"Australian Capital Territory",2602,Australia,AUD,"Training Center","Australian Education",8,5,0
"Lennox College",info@lennoxcollege.edu.au,,1300130666,"Level 4, 260 La Trobe Street ",Melbourne,Victoria,3000,Australia,AUD,"Training Center","Australian Education",16,1,0
"University of New England (UNE)",vcrew@une.edu.au,,"(02) 6773 3192","Elm avenue",Armidale,"New South Wales",2351,Australia,AUD,University,"Australian Education",133,2,1
"Crown Institute of Business and Technology (CIBT)",info@cibt.nsw.edu.au,,"(02) 9955 0488","116 Pacific Highway","North Sydney","New South Wales",2060,Australia,AUD,Institution,"Australian Education",19,3,0
"Tas College",info@tascollege.edu.au,,61362955296,"Unit 1, Level 1/86 Collins St",Hobart,Tasmania,7000,Australia,AUD,Institution,"Australian Education",13,3,1
"Training for Knowledge and Livelihood (TKL)",info@tkl.edu.au,,61286773602,"Suite 707, Level 7 Westfield Shopping Centre",Parramatta,"New South Wales",2150,Australia,AUD,Institution,"Australian Education",20,10,2
"International Training Education Counsel (ITEC)",info@itecounsel.com,,"1300 535 922","13/341 Crown Street",Wollongong,"New South Wales",2500,Australia,AUD,"Training Center","RPL Assessment ",11,12,1
"Torrens University Australia (TUA)",intadmissions@laureate.net.au,"Harley Campos","0478 333 273","540 George Street, Level 4 and 5",Sydney,"New South Wales",2000,Australia,AUD,University,"Australian Education",191,105,56
"Australian Institute of Higher Education",marketing@aih.nsw.edu.au,"Rishi Ranjan","(02) 9020 8050","Level 3 & 4/545 Kent St",Sydney,"New South Wales",2000,Australia,AUD,Institution,"Australian Education",14,36,13
"Australian Technical And Management College (ATMC)",info@atmc.edu.au,,"(03) 8327 3100","Level 10, 399 Lonsdale Street",Melbourne,Victoria,3000,Australia,AUD,Institution,"Australian Education",20,7,3
VETASSES,info@vetasses.gov.au,,,,,,,,AUD,Government,"SKILL ASSESSMENT",1,41,26
BUPA,info@bupa.com.au,,,,,,,,AUD,"Insurance Provider","Insurance Service",0,0,0
"Trinity Institute (Australia)",info@trinityinstitute.edu.au,,"0431 160 297","Level 1, 43 Hunter Street",Parramatta,"New South Wales",2150,Australia,AUD,Institution,"Australian Education",24,12,5
"Australian National Education",sydney.campus@ane.edu.au,,61292815929,"Level 6, 8 – 24 Kippax Street","Surry Hills","New South Wales",2010,Australia,AUD,Institution,"Australian Education",5,1,0
"Australian Catholic University (ACU)",askacu@acu.edu.au,,"(02) 9739 2368","40 Edward Street","North Sydney","New South Wales",2060,Australia,AUD,University,"Australian Education",609,26,8
"Australian College of Community and Health Services",info@acchs.edu.au,,"(02) 8005 0010","Suite 102, Level 1 30 Cowper Street",Sydney,"New South Wales",2150,Australia,AUD,College,"Australian Education,RPL Assessment ",9,13,5
"Queensford College",info@queensford.edu.au,,"(07) 3221 1626","Level 2, 3 and 4 359 Queen Street",Brisbane,Queensland,4000,Australia,AUD,Institution,"Australian Education",25,6,4
"SAE Institute",byronbay@sae.edu,,61266396000,"373-391 Ewingsdale Road ","Byron Bay","New South Wales",2481,Australia,AUD,"Training Center","Australian Education",26,2,1
"Australian Business and Culinary Institute",info@abcinstitute.edu.au,,"08 8311 1394","Level 1, 142 North Terrace",Adelaide,"South Australia",5000,Australia,AUD,Institution,"Australian Education",5,0,0
"Royal Greenhill Institute of Technology",admin@rgit.edu.au,,61386399000,"28-32 Elizabeth Street",Melbourne,Victoria,3000,Australia,AUD,"Training Center","Australian Education",28,0,0
"Indus Institute",info@indusinstitute.com.au,,"(07) 3036 3850","Level 18, 127 Creek Street",Brisbane,Queensland,+61,Australia,AUD,Institution,"Australian Education",5,1,1
"Australian Learning Group",info@alg.edu.au,"Adam Davis (ALG and IKON)",61291124500,"Level 1, 333 Kent Street",Sydney,"New South Wales",2000,Australia,AUD,"Training Center","Australian Education",33,28,9
"New Era Institute (NEI)",info@newerainstitute.com.au,,610289646457,"Suite 13 and 14, 100 George Street",Windsor,"New South Wales",2756,Australia,AUD,Institution,"Australian Education",27,21,12
"Australian Harbour International College (AHIC)",admissions@ahic.edu.au,,"2 9268 0085","114-120 Castlereagh Street,",Sydney,"New South Wales",2000,Australia,AUD,Institution,"Australian Education,Insurance Service,VISA Service",25,9,6
"Australian Child Care Career Options (ACCCO)",international@accco.com.au,,"(07) 3257 1972","161 Brunswick Street","Fortitude Valley",Queensland,4006,Australia,AUD,Institution,"Accomodation Service,Australian Education,Insurance Service,VISA Service",4,0,0
"Australian Centre of Further Education (ACFE)",info@acfe.edu.au,,"0404 056 792","Level 4 & 5, 341 Queen Street",Melbourne,Victoria,3000,Australia,AUD,Institution,"Accomodation Service,Australian Education,Insurance Service,VISA Service",19,5,0
"Australian Careers Education",info@ace.vic.edu.au,,"(03) 9380 1414","347-351 Victoria St",Brunswick,Victoria,3056,Australia,AUD,Institution,"Accomodation Service,Australian Education,Insurance Service,VISA Service",9,0,0
"Australian Careers College (ACC)",info@accollege.edu.au,,"(08) 8981 9619","Unit 1, 48 Woods Street",Darwin,"Northern Territory",800,Australia,AUD,Institution,"Accomodation Service,Australian Education,Insurance Service,VISA Service",7,0,0
"Australian Careers Business College",info@acbc.nsw.edu.au,,"(02) 9824 0000","28 Memorial Avenue",Liverpool,"New South Wales",2170,Australia,AUD,Institution,"Accomodation Service,Australian Education,Insurance Service,VISA Service",9,0,0
"Australian Capital Training Institute (ACTI)",info@actitraining.com.au,,"(02) 6176 3411","26 Mort St",Braddon,"Australian Capital Territory",2612,Australia,AUD,Institution,"Accomodation Service,Australian Education,Insurance Service,VISA Service",4,0,0
"Australian Capital College",info@capital.edu.au,,"(02) 6147 0999","Level 2, 17 University Ave",Canberra,"Australian Capital Territory",2601,Australia,AUD,Institution,"Accomodation Service,Australian Education,Insurance Service,VISA Service",4,0,0
"Australian Adelaide International College (AAIC)",info@aaic.edu.au,,"(08) 8232 7788","Level 1,135 Pirie Street",Adelaide,"South Australia",5000,Australia,AUD,Institution,"Accomodation Service,Australian Education,Insurance Service,VISA Service",8,0,0
"Australian Academy of Management & Science (AAM)",info@aams.nsw.edu.au,,"(02) 9837 4213","Shop 2,14 - 18 Douglas Road","Quakers Hill","New South Wales",2763,Australia,AUD,Institution,"Accomodation Service,Australian Education,Insurance Service,VISA Service",6,0,0
"Australian Academy of Commerce (AAC)",info@aac.nsw.edu.au,,"(02) 9211 1113","Levels 8 & 9, 140 Elizabeth St",SYDNEY,"New South Wales",2002,Australia,AUD,Institution,"Accomodation Service,Australian Education,Insurance Service,VISA Service",18,0,0
"Australian Academy of Business and Technology (AABT)",admissions@aabt.edu.au,,"(03) 9078 6670","Level 3 382 Lonsdale St",Melbourne,Victoria,3000,Australia,AUD,Institution,"Accomodation Service,Australian Education,Insurance Service,VISA Service",4,0,0
"Australia-International Institute of Workplace Training (AIWT)",yvonne@aiwt.edu.au,,"61 8 9249 9688","823 Wellington Street","West Perth","Western Australia",6005,Australia,AUD,Institution,"Accomodation Service,Australian Education,Insurance Service,VISA Service",14,0,0
"Australia Unity Institute of Technology (AUIT)",info@auit.edu.au,,"1300 417 668","Level 6, 119 Charlottle Street","Brisbane City",Queensland,4000,Australia,AUD,Institution,"Accomodation Service,Australian Education,Insurance Service,VISA Service",1,0,0
"Australia National Institute of Business (ANIB)",info@anib.qld.edu.au,,"(07) 3891 7912","1A Hubert Street",Woolloongabba,Queensland,4102,Australia,AUD,Institution,"Accomodation Service,Australian Education,Insurance Service,VISA Service",8,0,0
"Australia Institute of Business and Technology (AIBT)",studentsupport@aibtglobal.edu.au,,"1300 128 199","Level 1 - 3, 18 Mount Gravatt-Capalaba Road",Brisbane,Queensland,4122,Australia,AUD,Institution,"Accomodation Service,Australian Education,Insurance Service,VISA Service",14,2,0
"Australasian Lawrence Aged Care College",info@alacchealth.edu.au,,"(03) 9480 4445","169 Plenty Road",Preston,Victoria,3073,Australia,AUD,Institution,"Accomodation Service,Australian Education,Insurance Service,VISA Service",18,0,0
"Australasian International Academy (AIA)",admissions@aiacademy.edu.au,,"0412 615 728","3 Columbia Court","Baulkham Hills","New South Wales",2153,Australia,AUD,Institution,"Accomodation Service,Australian Education,Insurance Service,VISA Service",19,0,0
"Australasian College of Natural Therapies (ACNT)",info@atms.com.au,,611300575803,"90 Bowen Terrace","Fortitude Valley",Queensland,4006,Australia,AUD,Institution,"Accomodation Service,Australian Education,Insurance Service,VISA Service",4,0,0
"Australasian College of Care Leadership and Management (ACCLM)",info@acclm.edu.au,,"1800 875 725","Level 3/126 Margaret Street",Brisbane,Queensland,4000,Australia,AUD,Institution,"Accomodation Service,Australian Education,Insurance Service,VISA Service",4,0,0
"Austral College of Technology",admin@australcollege.vic.edu.au,,610390881668,"Level 2, 382 Lonsdale Street",Melbourne,Victoria,3000,Australia,AUD,Institution,"Accomodation Service,Australian Education,Insurance Service,VISA Service",4,0,0
"Atlantis College of Management",info@atlantis.edu.au,,610396147857,"Level 14, 474 Flinder Street",Melbourne,Victoria,3030,Australia,AUD,Institution,"Accomodation Service,Australian Education,Insurance Service,VISA Service",11,0,0
"Astute Training",reception@astutetraining.com.au,,"(02) 4732 5088","1/505 - 507 High Street",Penrith,"New South Wales",2750,Australia,AUD,Institution,"Accomodation Service,Australian Education,Insurance Service,VISA Service",8,0,0
"Astral Skills Institute of Australia",info@asia.edu.au," Anil Patel",61246089972,"Level-6, Suite 6.01/138 Queen Street",Campbelltown,"New South Wales",2560,Australia,AUD,Institution,"Accomodation Service,Australian Education,Insurance Service,VISA Service",6,0,0
"Astley English College",info@astleycollege.nsw.edu.au,,"(02) 8866 4770","72 Mary Street","Surry Hills","New South Wales",2010,Australia,AUD,Institution,"Accomodation Service,Australian Education,Insurance Service,VISA Service",3,1,0
"Aspen College",info@aspencollege.edu.au,"Samir Suxena","(08) 7228 5424","Level 6,118 King William Street",Adelaide,"South Australia",5000,Australia,AUD,Institution,"Accomodation Service,Australian Education,Insurance Service,VISA Service",11,3,2
"ASMI College",info@howardcollege.edu.au,,"(02) 8750 2821","Suite 1 & 2, Level 1, 224-238 George Street",Liverpool,"New South Wales",2170,Australia,AUD,Institution,"Accomodation Service,Australian Education,Insurance Service,VISA Service",3,0,0
"Asia Pacific International College (APIC)",programs@apicollege.edu.au,,"(02) 9318 8177","Level 1, 55 Regent Street",Chippendale,"New South Wales",2008,Australia,AUD,Institution,"Accomodation Service,Australian Education,Insurance Service,VISA Service",15,18,4
"Ashton College",info@ashtoncollege.edu.au,,"(03) 9349 2488","213 Nicholson Street",Footscray,Victoria,3011,Australia,AUD,Institution,"Accomodation Service,Australian Education,Insurance Service,VISA Service",14,0,0
"Ashley English Language Institute",admissions@ashley.nsw.edu.au,,"(02) 9994 0882","Level 2, 16-22 Wentworth Ave","Surry Hills","New South Wales",2010,Australia,AUD,Institution,"Accomodation Service,Australian Education,Insurance Service,VISA Service",5,12,8
"ARC Training",info@arcgroup.com.au,,61288333999,"Level 9, 79 George Street",Parramatta,"New South Wales",2150,Australia,AUD,Institution,"Accomodation Service,Australian Education,Insurance Service,VISA Service",26,0,0
"Aquinas College (Victoria)",principal@aquinas.vic.edu.au,,61392593000,"46 Great Ryrie Street",Melbourne,Victoria,3134,Australia,AUD,College,"Accomodation Service,Australian Education,Insurance Service,VISA Service",6,0,0
"Apsley College",info@apsley.nsw.edu.au,"Anil Patel",610296332779,"Suite 8, 8-10 Hunter Street",Parramatta,"New South Wales",2150,Australia,AUD,Institution,"Accomodation Service,Australian Education,Insurance Service,VISA Service",5,0,0
"Apple Study Group",rao@ssbt.nsw.edu.au,,"(02) 9249 7800","Level 2, 600 George Street",Sydney,"New South Wales",2000,Australia,AUD,Institution,"Accomodation Service,Australian Education,Insurance Service,VISA Service",3,0,0
"Apex Australia Vocational Education",info@apexaustralia.edu.au,,"02 8007 6262","Level 3, 22-26 Goulburn Street",Sydney,"New South Wales",2000,Australia,AUD,Institution,"Accomodation Service,Australian Education,Insurance Service,VISA Service",22,1,0
"Apeiro Institute",info@apeiro.com.au,"Luma ARANTES","(08) 6558 0340","Level 1, 10 Victoria Ave",Perth,"Western Australia",6000,Australia,AUD,Institution,"Accomodation Service,Australian Education,Insurance Service,VISA Service",13,12,4
"AOI Institute",admissions@aoi.edu.au,,"(03) 9662 1401","108 Bourke Street",Melbourne,Victoria,3000,Australia,AUD,Institution,"Accomodation Service,Australian Education,Insurance Service,VISA Service",6,0,0
"Angad Australian Institute of Technology",info@angad.vic.edu.au,,"(03) 9670 9095","Level 6, 501 Latrobe St",Melbourne,Victoria,3000,Australia,AUD,Institution,"Accomodation Service,Australian Education,Insurance Service,VISA Service",11,0,0
"Amity College",intstudent@amity.nsw.edu.au,,61287843111,"163 Kurrajong Road",Sydney,"New South Wales",2170,Australia,AUD,College,"Accomodation Service,Australian Education,Insurance Service,VISA Service",13,0,0
"American College",admin@americancollege.edu.au,,"(07) 3391 7599","180 Logan Road",Woolloongabba,Queensland,4102,Australia,AUD,Institution,"Accomodation Service,Australian Education,Insurance Service,VISA Service",7,0,0
"Ambridge Institute",enquiries@ambridge.edu.au,,"(02) 9169 6878","Level 5, 55 Market Street",Sydney,"New South Wales",2000,Australia,AUD,Institution,"Accomodation Service,Australian Education,Insurance Service,VISA Service",4,0,0
"AMA College",enrolments@amacollege.edu.au,,"(08) 9273 3033","57 Shenton Ave",Joondalup,"Western Australia",6027,Australia,AUD,Institution,"Accomodation Service,Australian Education,Insurance Service,VISA Service",1,0,0
"Alphacrucis University College",info@ac.edu.au,"Cristina Iordache Yeo","1300 228 355","30 Cowper Street",Paramatta,"New South Wales",2150,Australia,AUD,Institution,"Accomodation Service,Australian Education,Insurance Service,VISA Service",43,20,4
"Alpha International College Australia",alphatrainingcollege@gmail.com,,"(03) 8390 1019","Level 8, 500 Collins St",Melbourne,Victoria,3000,Australia,AUD,Institution,"Accomodation Service,Australian Education,Insurance Service,VISA Service",5,0,0
"Alpha Institute",info@alphainstitute.edu.au,,"(04) 2626 1343","17 Oatley Ct",Belconnen,"Australian Capital Territory",2617,Australia,AUD,Institution,"Accomodation Service,Australian Education,Insurance Service,VISA Service",6,0,0
"All Saints Anglican School",mbartlett@asas.qld.edu.au,,61755302855,"Highfield Dr",Merrimac,Queensland,4226,Australia,AUD,School,"Accomodation Service,Australian Education,Insurance Service,VISA Service",13,0,0
"Albright Institute of Business and Language",info@albrightinstitute.edu.au,,"1300 189 154","Level 8,341-345 Queen St",Melbourne,Victoria,3000,Australia,AUD,Institution,"Accomodation Service,Australian Education,Insurance Service,VISA Service",21,1,1
"Alana Kaye College",training@alanakaye.edu.au,,"(08) 8942 6100","4 Shepherd St",Darwin,"Northern Territory",800,Australia,AUD,Institution,"Accomodation Service,Australian Education,Insurance Service,VISA Service",10,0,0
"Airwork Helicopters",admin@airwork.com.au,,"61 (07) 5495 8000","5/19 Lear Jet Drive",Caboolture,Queensland,4510,Australia,AUD,Institution,"Accomodation Service,Australian Education,Insurance Service,VISA Service",1,0,0
"Airways Aviation",h.tierney@airwaysaviation.com,,"(07) 5599 3445","Hangar 51 Lores Bunney Circuit",Bilinga,Queensland,4225,Australia,AUD,Institution,"Accomodation Service,Australian Education,Insurance Service,VISA Service",3,0,0
"Air Gold Coast",manager@aviationstudycentre.com,,"(07) 5536 2822","34 Eastern Avenue, Gold Coast Airport",Bilinga,Queensland,4225,Australia,AUD,Institution,"Accomodation Service,Australian Education,Insurance Service,VISA Service",2,0,0
"AIBI Higher Education",info@aibihe.edu.au,,61299697054,"Suite 510, 451 Pitt St",Sydney,"New South Wales",2000,Australia,AUD,College,"Accomodation Service,Australian Education,Insurance Service,VISA Service",2,0,0
"AHTS Training and Education (AHTS)",eva@ahts.sa.edu.au,,"(08) 8223 1818","Level 2,97 Pirie Street",Adelaide,"South Australia",5000,Australia,AUD,Institution,"Accomodation Service,Australian Education,Insurance Service,VISA Service",10,0,0
"AH & B College",admin@ahbc.com.au,,"(02) 9389 0771","Level 1, Royal Arcade
175-181 Oxford Street","Bondi Junction","New South Wales",2022,Australia,AUD,Institution,"Accomodation Service,Australian Education,Insurance Service,VISA Service",10,0,0
"Aeropower Flight School",fly@aeropowerflightschool.com.au,,"(07) 3385 9500","Hangar 14B, Redcliffe Aerodome, Nathan Road","Kippa Ring",Queensland,4022,Australia,AUD,Institution,"Accomodation Service,Australian Education,Insurance Service,VISA Service",2,0,0
"Advance English",info@advanceenglish.com.au,,"(02) 8214 2513","Level 1,16-22 Wentworth Ave","Surry Hills","New South Wales",2010,Australia,AUD,Institution,"Accomodation Service,Australian Education,Insurance Service,VISA Service",2,0,0
"Adelaide International School",info@ais.edu.au,,61881231786,"Level 4, 127 Rundle Mall",Adelaide,"South Australia",5000,Australia,AUD,School,"Accomodation Service,Australian Education,Insurance Service,VISA Service",1,0,0
"Adelaide Institute of Higher Education (AIHE)",info@aihe.sa.edu.au,,"(08) 8470 0156","Level 5,127 Rundle Mall Street",Adelaide,"South Australia",5000,Australia,AUD,Institution,"Accomodation Service,Australian Education,Insurance Service,VISA Service",2,0,0
"Adelaide Institute of Business and Technology",info@aibt.edu.au,,"(08) 8212 0990","Levels 4 & 5,127 Rundle Mall",Adelaide,"South Australia",5000,Australia,AUD,Institution,"Accomodation Service,Australian Education,Insurance Service,VISA Service",10,0,0
"Austra College",info@acte.sa.edu.au,,"08 8410 9915","Suite 2, Level 4, 97 Pirie Street",Adelaide,"South Australia",5000,Australia,AUD,Institution,"Accomodation Service,Australian Education,Insurance Service,VISA Service",10,0,0
"Acumen Education",admissions@acumen.edu.au,,"(03) 8415 1244","5-9 Elizabeth Street",Richmond,Victoria,3121,Australia,AUD,Institution,"Accomodation Service,Australian Education,Insurance Service,VISA Service",12,0,0
"Actors College of Theatre and Television",info@actt.edu.au,,"02 9281 2400","Level 16,233 Castlereagh street",Sydney,"New South Wales",2000,Australia,AUD,Institution,"Accomodation Service,Australian Education,Insurance Service,VISA Service",10,8,6
"ACT Government Education",ieu@act.gov.au,,61262055429,"220 Northbourne Ave",Braddon,"Australian Capital Territory",2612,Australia,AUD,School,"Accomodation Service,Australian Education,Insurance Service,VISA Service",13,0,0
"Accredited Education & Training Australia (AETA)",info@aeta.vic.edu.au,,"(03) 9310 1650","2/149 Anderson Rd",Sunshine,Victoria,3020,Australia,AUD,Institution,"Accomodation Service,Australian Education,Insurance Service,VISA Service",7,0,0
"Accountants Resource Centre (ARC)",info@AccountantsRC.com.au,,61398272828,"Suite 1/200 Toorak Road","South Yarra",Victoria,3141,Australia,AUD,Institution,"Accomodation Service,Australian Education,Insurance Service,VISA Service",14,0,0
"Academy of Music and Performing Arts (AMPA)",admin@ampa.edu.au,,"(02) 9310 3111","136 Chalmers Street","Surry Hills","New South Wales",2010,Australia,AUD,Institution,"Accomodation Service,Australian Education,Insurance Service,VISA Service",6,0,0
"Academy of Interactive Technology",info@ait.edu.au,,"(02) 9211 8399","Level 2, 7 Kelly Street",Ultimo,"New South Wales",2007,Australia,AUD,Institution,"Accomodation Service,Australian Education,Insurance Service,VISA Service",17,0,0
"Academy of Entrepreneurs",INFO@AESTUDY.COM,,"61 42 09 555 09","53 Murray Street",Pyrmont,"New South Wales",2009,Australia,AUD,Institution,"Accomodation Service,Australian Education,Insurance Service,VISA Service",2,0,0
"Academy of Film Theatre and Television (AFTT)",info@aftt.edu.au,,61292812400,"41 Holt Street","Surry Hills","New South Wales",2010,Australia,AUD,Institution,"Accomodation Service,Australian Education,Insurance Service,VISA Service",3,0,0
"Academy of English",enquiry@aca.edu.sg,,"(02) 9224 5500","Level 6, 505 George Street GND Floor, 333 Kent Street",Sydney,"New South Wales",2000,Australia,AUD,Institution,"Accomodation Service,Australian Education,Insurance Service,VISA Service",8,0,0
Academique,info@academique.com.au,,"(07) 5526 3222","46 & 51 Nerang Street",Southport,Queensland,4215,Australia,AUD,Institution,"Accomodation Service,Australian Education,Insurance Service,VISA Service",11,0,0
"Academies Australasia Polytechnic (AAPoly)",enquiries@aapoly.edu.au,"Serena Gurung","3 8610 4100","Level 7, 628 Bourke St",Melbourne,Victoria,3000,Australia,AUD,Institution,"Accomodation Service,Australian Education,Insurance Service,VISA Service",29,4,3
"Academia International & Academia Australia",melk@academia21.com,,"(03) 9671 4755","399 Lonsdale Street",Melbourne,Victoria,3000,Australia,AUD,Institution,"Accomodation Service,Australian Education,Insurance Service,VISA Service",29,0,0
"Ability English",info@ability.edu.au,,"(02) 9211 4161","10 Quay Street",Sydney,"New South Wales",2000,Australia,AUD,Institution,"Accomodation Service,Australian Education,Insurance Service,VISA Service",5,1,1
"VETASSESS - Vocational Education and Training Assessment Services",info@vetassess.com.au,,61396554801,"Level 5, 478 Albert Street",Melbourne,Victoria,3002,Australia,AUD,Private,"Accomodation Service,Australian Education,Insurance Service,SKILL ASSESSMENT,VISA Service",15,34,15
"Trades Recognition Australia",traenquiries@dese.gov.au,,61262408778,"50 Marcus Clarke Street",Canberra,"Australian Capital Territory",2601,Australia,AUD,Government,"Australian Education,SKILL ASSESSMENT,VISA Service",33,79,46
"The Speech Pathology Association of Australia Limited",office@speechpathologyaustralia.org.au,,61396424899,"Level 1 / 114 William Street",Melbourne,Victoria,3000,Australia,AUD,Private,"Accomodation Service,Australian Education,Insurance Service,VISA Service",2,0,0
"Institute of Public Accountants Ltd",headoffice@publicaccountants.org.au,,61386653100,"Level 6, 555 Lonsdale Street",Melbourne,Victoria,3000,Australia,AUD,Private,"Accomodation Service,Australian Education,Insurance Service,VISA Service",8,0,0
"The Institution of Engineers Australia",memberservices@engineersaustralia.org.au,,61262706555,"11 National Circuit",Canberra,"Australian Capital Territory",2600,Australia,AUD,Private,"Insurance Service,SKILL ASSESSMENT,VISA Service",6,12,5
"The Australian Institute of Quantity Surveyors",contact@aiqs.com.au,,61282344000,"Suite 303, Level 3, 70 Pitt Street",Sydney,"New South Wales",2000,Australia,AUD,Private,"Accomodation Service,Australian Education,Insurance Service,VISA Service",1,0,0
"Surveying and Spatial Sciences Institute Limited",info@sssi.org.au,,61262822282,"Unit 7, Level 1, 27 – 29 Napier Close",Deakin,"Australian Capital Territory",2600,Australia,AUD,Private,"Accomodation Service,Australian Education,Insurance Service,VISA Service",2,0,0
"Institute of Managers and Leaders National",membership@managersandleaders.com.au,,611300661061,"Suite 1.02, Level 1, 50 Carrington Street",Sydney,"New South Wales",2000,Australia,AUD,Private,"Accomodation Service,Australian Education,Insurance Service,VISA Service",12,0,0
"Podiatry Board of Australia",podiatrychair@ahpra.gov.au,,61392853010,"Level 7, 111 Bourke Street",Melbourne,Victoria,3000,Australia,AUD,Private,"Accomodation Service,Australian Education,Insurance Service,VISA Service",1,0,0
"Optometry Council of Australia and New Zealand Limited",exam.manager@ocanz.org.au,,61396703173,"Collins Street West",Melbourne,Victoria,8007,Australia,AUD,Private,"Accomodation Service,Australian Education,Insurance Service,VISA Service",3,0,0
"Dietitians Association of Australia",info@dietitiansaustralia.org.au,,61261891200,"1/8 Phipps Close",Deakin,"Australian Capital Territory",2600,Australia,AUD,Private,"Accomodation Service,Australian Education,Insurance Service,VISA Service",12,0,0
"Occupational Therapy Council of Australia Limited",admin@otcouncil.com.au,,61893682655,"68 South Terrace",Perth,"Western Australia",6951,Australia,AUD,Private,"Accomodation Service,Australian Education,Insurance Service,VISA Service",7,0,0
"CPA Australia Ltd",memberservice@cpaaustralia.com.au,,61396069677,"Level 20, 28 Freshwater Place","South Bank",Victoria,3006,Australia,AUD,Private,"Accomodation Service,Australian Education,SKILL ASSESSMENT,VISA Service",5,10,4
"National Accreditation Authority for Translators and Interpreters Ltd",info@naati.com.au,,611300557470,"16/2 King Street",Deakin,"Australian Capital Territory",2600,Australia,AUD,Private,"Accomodation Service,Australian Education,Insurance Service,VISA Service",14,0,0
"Council on Chiropractic Education Australasia Limited",admin@ccea.com.au,,61261006264,"Level 1, 15 Lancaster Place,Majura Park",Canberra,"Australian Capital Territory",2609,Australia,AUD,Private,"Accomodation Service,Australian Education,Insurance Service,VISA Service",13,0,0
"Medical Board of Australia",communications@ahpra.gov.au,,61392853010,"Level 7, 111 Bourke Street",Melbourne,Victoria,3000,Australia,AUD,Private,"Accomodation Service,Australian Education,Insurance Service,VISA Service",1,0,0
"Chinese Medicine Board of Australia",program.accreditation@ahpra.gov.au,,61392853010,"Level 7, 111 Bourke Street",Melbourne,Victoria,3000,Australia,AUD,Private,"Accomodation Service,Australian Education,Insurance Service,VISA Service",2,0,0
"Chartered Accountants Australia and New Zealand",service@charteredaccountantsanz.com,,61292905660,"Level 10, 60 Marcus Clarke Street",Canberra,"Australian Capital Territory",2601,Australia,AUD,Private,"SKILL ASSESSMENT",7,33,8
"Australian Society of Medical Imagery and Radiation Therapy",osassess@asmirt.org,,61394193336,"Suite 1040-1044 (Level 10), 1 Queens Road",Melbourne,Victoria,3004,Australia,AUD,Private,"Accomodation Service,Australian Education,Insurance Service,VISA Service",5,0,0
"Australian Psychological Society Limited",contactus@psychology.org.au,,61386623300,"Level 13, 257 Collins Street",Melbourne,Victoria,8009,Australia,AUD,Private,"Accomodation Service,Australian Education,Insurance Service,VISA Service",4,0,0
"Australian Physiotherapy Council Limited",enquiries@physiocouncil.com.au,,61370181499,"Level 3, 600 Victoria St",Richmond,Victoria,3121,Australia,AUD,Private,"Accomodation Service,Australian Education,Insurance Service,VISA Service",12,0,0
"Australian Pharmacy Council Limited",assessments@pharmacycouncil.org.au,,61261884288,"Level 1, 15 Lancaster Place,",Canberra,"Australian Capital Territory",2609,Australia,AUD,Private,"Accomodation Service,Australian Education,Insurance Service,VISA Service",7,0,0
"Australian Orthotic Prosthetic Association Limited",admin@aopa.org.au,,61398164620,"2/1175 Toorak Road",Camberwell,Victoria,3124,Australia,AUD,Private,"Accomodation Service,Australian Education,Insurance Service,VISA Service",5,0,0
"Australian Nursing & Midwifery Accreditation Council Limited",anmac@anmac.org.au,,61262577960,"Level 1, 15 Lancaster Place , Majura Park",Canberra,"Australian Capital Territory",2609,Australia,AUD,Private,"Australian Education,Insurance Service,SKILL ASSESSMENT",3,40,4
"Australian Institute of Medical Scientists",contact@aims.org.au,,61738762988,"7/31 Black Street",Milton,Queensland,4064,Australia,AUD,Private,"Accomodation Service,Australian Education,Insurance Service,VISA Service",23,0,0
"Australian Institute for Teaching and School Leadership Limited",migration@aitsl.edu.au,,61399441200,"Level 8, 440 Collins Street",Melbourne,Victoria,3000,Australia,AUD,Private,"Australian Education,Insurance Service,SKILL ASSESSMENT,VISA Service",4,1,1
"Australian Dental Council Limited",info@adc.org.au,,61396571777,"Level 6, 469 La Trobe Street",Melbourne,Victoria,3000,Australia,AUD,Private,"Accomodation Service,Australian Education,Insurance Service,VISA Service",7,0,0
"Australian Computer Society Incorporated",info@acs.org.au,,61261435503,"Queen Victoria Building",Sydney,"New South Wales",1230,Australia,AUD,Private,"Australian Education,SKILL ASSESSMENT",7,61,17
"Australian Community Workers Association Inc.",info@acwa.org.au,,61396425166,"Suite 4, Level 2, 190 Queen Street",Melbourne,Victoria,3000,Australia,AUD,Private,"Australian Education,Insurance Service,SKILL ASSESSMENT,VISA Service",7,11,2
"Australian Children’s Education and Care Quality",enquiries@acecqa.gov.au,,1300422327,"6/175 Liverpool St",Sydney,"New South Wales",2000,Australia,AUD,Private,"Australian Education,SKILL ASSESSMENT,VISA Service",6,3,2
"Australian Association of Social Workers Limited",cpd@aasw.asn.au,,61393201000,"Level 7, 14-20 Blackwood St","North Melbourne",Victoria,3051,Australia,AUD,Private,"Accomodation Service,Australian Education,Insurance Service,VISA Service",6,1,1
"Australian and New Zealand Society of Nuclear Medicine",secretariat@anzsnm.org.au,,611300330402,"Vermont South",Parkville,Victoria,3052,Australia,AUD,Private,"Accomodation Service,Australian Education,Insurance Service,VISA Service",3,0,0
"Australasian Veterinary Boards Council Incorporated",admin@avbc.asn.au,,61396207844,"Level 8, 470 Collins St",Melbourne,Victoria,3000,Australia,AUD,Private,"Accomodation Service,Australian Education,Insurance Service,VISA Service",13,0,0
"Australasian Osteopathic Accreditation Council Limited",admin@osteopathiccouncil.org.au,,612627491905,"Level 1, 15 Lancaster Place , Majura Park",Canberra,"Australian Capital Territory",2609,Australia,AUD,Private,"Accomodation Service,Australian Education,Insurance Service,VISA Service",16,0,0
"Australasian College of Physical Scientists and Engineers in Medicine",admin.support@acpsem.org.au,,61283053900,"Suite 7.12, Aero 247 Coward Street",Mascot,"New South Wales",2020,Australia,AUD,Private,"Accomodation Service,Australian Education,Insurance Service,VISA Service",1,0,0
"​Architects Accreditation Council of Australia",mail@aaca.org.au,,61280428930,"Suite 3, Level 5 75 Castlereagh Street",Sydney,"New South Wales",2000,Australia,AUD,Private,"Accomodation Service,Australian Education,Insurance Service,VISA Service",14,0,0
"Department of Home Affairs (DoHA)",info@homeaffairs.gov.au,,"131 881","GPO Box 9984",Sydney,NSW,2001,Australia,AUD,"Visa Department","VISA Service",156,1349,401
"Australian Institute of Business and Technology T/A Sydney International School (SIS)",info@sis.edu.au,,"(02) 92643997","Level 3, 303 Pitt Street",Sydney,"New South Wales",2000,Australia,AUD,Institution,"Accomodation Service,Australian Education,Insurance Service,VISA Service",96,0,0
"Australia Institute of Business and Technology (AIBT)",b.yang@aibtglobal.edu.au,,"0450 566 596",,,,,,AUD,College,"Australian Education",2,0,0
"King's Own Institute (KOI)",ask@koi.edu.au,,61292833583,"Level 1, St Martins Tower, 31 Market Street",Sydney,"New South Wales",2000,Australia,AUD,Institution,"Australian Education",24,133,63
"Opera City English College",info@opera.nsw.edu.au,,+61280348856,"Level 1, 303 Pitt Street",Sydney,"New South Wales",2000,Australia,AUD,College,"Australian Education",3,9,0
"Charles Sturt University",vc@csu.edu.au,,"1800 275 278","Boorooma Street","Wagga Wagga","New South Wales",2675,Australia,AUD,University,"Australian Education",157,93,37
"Southern cross university (EDU-co)",infosydney@scu.edu.au,,285991820,"86 Mary Street","Surry Hills","New South Wales",2010,Australia,AUD,University,"Australian Education",11,4,0
"TAFE NSW",intadmissions@tafensw.edu.au,,610292174106,"651-731 Harris Street",Sydney,"New South Wales",2007,Australia,AUD,Institution,"Australian Education",123,3,0
"Flinders University",askflinders@flinders.edu.au,,"(08) 8201 2015","Sturt Road","Bedford Park","South Australia",5042,Australia,AUD,University,"Australian Education",636,1,0
"Australian Catholic University",nternational.admissions@acu.edu.au,,,"North Sydney Campus (MacKillop) T: +61 2 9739 2437 42 Edward Street North Sydney NSW 2060",,,,,AUD,University,"Australian Education",1,1,0
"Australian College of Applied Professions (ACAP)",connect@acap.edu.au,"Mario Tjahyadi","1800 061 199","Level 11, 255 Elizabeth Street",Sydney,"New South Wales",2000,Australia,AUD,Institution,"Australian Education",29,39,14
"Rockford College",admissions@rockford.edu.au,,"+61 2 8593 5200","Level 3/633 Princes Highway",Rockdale,NSW,,Australia,AUD,College,"Australian Education",17,14,7
"University of Canberra",international@canberra.edu.au,,61262015111,"Building 5, Level B, 11 Kirninari Street",Bruce,"Australian Capital Territory",2617,Australia,AUD,"Training Center","Australian Education",232,10,7
"Excelsia College",info@excelsia.edu.au,,"(02) 9819 8847","69-71 Waterloo Road","Macquarie Park","New South Wales",2113,Australia,AUD,Institution,"Australian Education",41,74,45
"Queensland International Business Academy (QIBA)",info@qiba.edu.au,"Saroj Sharma","0412 870 718","Lvl 2, 108 Margaret Street",Brisbane,Queensland,4000,Australia,AUD,Institution,"Australian Education",15,17,3
"CIT Solutions",Agents@cit.edu.au,,262073188,"PO Box 226",Jamison,ACT,2614,Australia,AUD,Institution,"Australian Education",1,2,1
"Lead College",admissions@leadcollege.edu.au,Calista,"(02) 8668 5676","Lvl 1, 841 George St Haymarket",Sydney,NSW,2000,Australia,AUD,Institution,"Australian Education",47,31,14
"Equals International",admissions@equals.edu.au,,"(08) 8110 1200","81 Currie St",Adelaide,"South Australia",5000,Australia,AUD,Institution,"Australian Education,VISA Service",12,2,0
IMAN,support@getmypolicy.online,,61249141131,"22 Honeysuckle Drive",Newcastle,"New South Wales",2300,Australia,AUD,"Insurance Provider","Insurance Service",51,0,0
"NIB OSHC",nibinsurance@nib.com.au,,61249251900,"22 Honeysuckle Drive",Newcastle,"New South Wales",2300,Australia,AUD,"Insurance Provider","Insurance Service",1,0,0
Medibank,oshc@medibank.com.au,,61368621095,,Melbourne,Victoria,3001,Australia,AUD,"Insurance Provider","Insurance Service",4,0,0
"Allianz OSHC",phio.info@ombudsman.gov.au,,61733058841,"Level 6/324 Queen St",Brisbane,Queensland,4000,Australia,AUD,"Insurance Provider","Insurance Service",1,0,0
AHM,oshc@ahm.com.au,,61398621095,,Melbourne,Victoria,3001,Australia,AUD,"Insurance Provider","Insurance Service",1,0,0
"US Customs and Border Protection",enrolments@vsoenglish.edu,,"540 4324161","Suite 50, 200 One World Trade Centre",Rochester,"New York",,"United States",USD,"Visa Department","VISA Service",2,0,0
Bupa,oshc@bupa.com.au,,61399374223,"247 Collins Street",Melbourne,Victoria,3000,Australia,AUD,"Insurance Provider","Insurance Service",6,13,3
UniLodge,bookings@unilodge.com.au,,"02 9338 5000","185-211 Broadway",Ultimo,NSW,,Australia,AUD,"Accommodation Provider","Accomodation Service",3,0,0
"Department of Home Affairs (AUS)",visa@homeaffairs.gov.au,,"1800 562 896","26 Lee Street",Sydney,NSW,,Australia,AUD,"Visa Office","VISA Service",8,113,21
"Virginia School of English",enrolments@vsoenglish.edu,,"540 4324161","120 Park Road",Harrisonburg,VA,,"United States",USD,School,"Us Education F1",2,0,0
"California State University",students@calstatela.edu,,"323 3433000","5151 State University Drve","Los Angeles",CA,,"United States",USD,University,"Us Education F1",5,0,0
"Louisiana State University",students@lsu.edu,,"225 5782311","114 West David Boyd","Baton Rouge",LA,,"United States",USD,University,"Us Education F1",5,0,0
ATMC,admissions@atmc.edu.au,,"02 9811 5200","540 George Street",Sydney,NSW,,Australia,AUD,University,"Australian Education",5,0,0
"Queensland Academy of Technology (QAT)",study@qat.qld.edu.au,,"(07) 3002 0888","Ground Floor, 333 Adelaide Street",Brisbane,Queensland,4000,Australia,AUD,Institution,"Australian Education",198,0,0
"The University of Sydney",info@io.usyd.edu.au,,"(02) 9351 5051","88 Mallett Street",Camperdown,"New South Wales",2006,Australia,AUD,University,"Australian Education",150,2,0
